ONEWEB-0650             
1 55813U 23029T   23233.27207774  .00000038  00000+0  61790-4 0  9994
2 55813  87.9242 150.1148 0002341  85.3270 274.8130 13.19729900 23619
ONEWEB-0652             
1 55814U 23029U   23233.58334491 -.00566471  00000+0 -94549+0 0  9999
2 55814  87.6484 135.1106 0001068 127.4017 187.5114 13.49293544 24609
ONEWEB-0653             
1 55815U 23029V   23233.58334491  .00000015  00000+0  00000+0 0  9994
2 55815  87.6482 135.0420 0002116 137.2245 103.2886 13.50940866 24635
ONEWEB-0654             
1 55816U 23029W   23233.58334491  .00000014  00000+0  00000+0 0  9994
2 55816  87.6750 135.0755 0002457 278.5033 157.8920 13.51132669 24669
ONEWEB-0656             
1 55817U 23029X   23233.58334491 -.00663210  00000+0 -13725+0 0  9998
2 55817  86.7287 126.5084 0002452  94.3208  28.6665 14.63183063 25242
ONEWEB-0657             
1 55818U 23029Y   23232.73718368  .00000085  00000+0  17897-3 0  9995
2 55818  87.9188 150.2359 0002913  65.9999 294.1439 13.19724942 23545
ONEWEB-0658             
1 55819U 23029Z   23232.73295435  .00000218  00000+0  51136-3 0  9993
2 55819  87.9273 150.1729 0002388  97.1633 262.9771 13.19727794 23550
ONEWEB-0660             
1 55820U 23029AA  23233.58334491  .00000015  00000+0  00000+0 0  9990
2 55820  87.6526 135.0751 0003923 138.3403 238.9538 13.51313929 24660
